{
    "links": {
        "self": "http://www.neowsapp.com/rest/v1/neo/54049791?api_key=iIulBulltgU6a56xZRHN4H3l9WmuAYTsLGpBGhQ2"
    },
    "id": "54049791",
    "neo_reference_id": "54049791",
    "name": "(2020 OW4)",
    "designation": "2020 OW4",
    "nasa_jpl_url": "http://ssd.jpl.nasa.gov/sbdb.cgi?sstr=54049791",
    "absolute_magnitude_h": 23.994,
    "estimated_diameter": {
        "kilometers": {
            "estimated_diameter_min": 0.0422430217,
            "estimated_diameter_max": 0.0944582682
        },
        "meters": {
            "estimated_diameter_min": 42.2430217295,
            "estimated_diameter_max": 94.4582681621
        },
        "miles": {
            "estimated_diameter_min": 0.0262485887,
            "estimated_diameter_max": 0.0586936285
        },
        "feet": {
            "estimated_diameter_min": 138.5925954109,
            "estimated_diameter_max": 309.902464517
        }
    },
    "is_potentially_hazardous_asteroid": false,
    "close_approach_data": [
        {
            "close_approach_date": "1960-07-17",
            "close_approach_date_full": "1960-Jul-17 06:22",
            "epoch_date_close_approach": -298489080000,
            "relative_velocity": {
                "kilometers_per_second": "9.2054753034",
                "kilometers_per_hour": "33139.7110921571",
                "miles_per_hour": "20591.7277061239"
            },
            "miss_distance": {
                "astronomical": "0.1777639062",
                "lunar": "69.1501595118",
                "kilometers": "26593101.730399794",
                "miles": "16524187.1785293972"
            },
            "orbiting_body": "Earth"
        },
        {
            "close_approach_date": "2001-07-27",
            "close_approach_date_full": "2001-Jul-27 20:45",
            "epoch_date_close_approach": 996266700000,
            "relative_velocity": {
                "kilometers_per_second": "13.2644031599",
                "kilometers_per_hour": "47751.8513757181",
                "miles_per_hour": "29671.1434284289"
            },
            "miss_distance": {
                "astronomical": "0.319416972",
                "lunar": "124.253202108",
                "kilometers": "47784098.65304964",
                "miles": "29691662.082339432"
            },
            "orbiting_body": "Earth"
        },
        {
            "close_approach_date": "2020-07-04",
            "close_approach_date_full": "2020-Jul-04 03:31",
            "epoch_date_close_approach": 1593833460000,
            "relative_velocity": {
                "kilometers_per_second": "6.9437151946",
                "kilometers_per_hour": "24997.3747004029",
                "miles_per_hour": "15532.3965187031"
            },
            "miss_distance": {
                "astronomical": "0.1527795632",
                "lunar": "59.4312500848",
                "kilometers": "22855497.234250384",
                "miles": "14201747.4375839392"
            },
            "orbiting_body": "Earth"
        },
        {
            "close_approach_date": "2042-08-06",
            "close_approach_date_full": "2042-Aug-06 04:00",
            "epoch_date_close_approach": 2290910400000,
            "relative_velocity": {
                "kilometers_per_second": "17.5187615134",
                "kilometers_per_hour": "63067.5414481752",
                "miles_per_hour": "39187.7176292842"
            },
            "miss_distance": {
                "astronomical": "0.4789409335",
                "lunar": "186.3080231315",
                "kilometers": "71648543.507411645",
                "miles": "44520340.499884901"
            },
            "orbiting_body": "Earth"
        },
        {
            "close_approach_date": "2061-07-15",
            "close_approach_date_full": "2061-Jul-15 14:47",
            "epoch_date_close_approach": 2888664420000,
            "relative_velocity": {
                "kilometers_per_second": "8.3350705815",
                "kilometers_per_hour": "30006.2540934284",
                "miles_per_hour": "18644.719383775"
            },
            "miss_distance": {
                "astronomical": "0.1444461202",
                "lunar": "56.1895407578",
                "kilometers": "21608831.911683974",
                "miles": "13427105.5267638812"
            },
            "orbiting_body": "Earth"
        }
    ],
    "orbital_data": {
        "orbit_id": "4",
        "orbit_determination_date": "2020-09-11 07:48:23",
        "first_observation_date": "2020-07-12",
        "last_observation_date": "2020-08-14",
        "data_arc_in_days": 33,
        "observations_used": 26,
        "orbit_uncertainty": "6",
        "minimum_orbit_intersection": ".12974",
        "jupiter_tisserand_invariant": "3.532",
        "epoch_osculation": "2459000.5",
        "eccentricity": ".4770138975057577",
        "semi_major_axis": "2.151180991115519",
        "inclination": "10.022906941417",
        "ascending_node_longitude": "125.2454158659424",
        "orbital_period": "1152.428139780396",
        "perihelion_distance": "1.125037762303207",
        "perihelion_argument": "150.2760071471094",
        "aphelion_distance": "3.177324219927832",
        "perihelion_time": "2459023.769790748226",
        "mean_anomaly": "352.730891948753",
        "mean_motion": ".3123839027990074",
        "equinox": "J2000",
        "orbit_class": {
            "orbit_class_type": "AMO",
            "orbit_class_description": "Near-Earth asteroid orbits similar to that of 1221 Amor",
            "orbit_class_range": "1.017 AU < q (perihelion) < 1.3 AU"
        }
    },
    "is_sentry_object": false
}